GLOBALSTAR M063         
1 26081U 00008A   24346.92766476 -.00000012  00000+0  10313-2 0  9994
2 26081  51.9945 244.7460 0004581 325.2890 143.6212 11.86166431135359
GLOBALSTAR M062         
1 26082U 00008B   24347.14265712 -.00000082  00000+0  11278-3 0  9996
2 26082  51.9854 285.8198 0007551  70.4919 303.2015 12.43453223135856
GLOBALSTAR M060         
1 26083U 00008C   24346.91767274  .00000054  00000+0  14451-2 0  9994
2 26083  51.9999 219.9962 0004433  95.5780  20.4954 12.17650811129557
GLOBALSTAR M064         
1 26084U 00008D   24346.68522843 -.00000060  00000+0  32540-3 0  9998
2 26084  52.0052 346.4213 0001672  56.7483 303.3510 11.88526322144808
GLOBALSTAR M065         
1 31571U 07020A   24346.85493490  .00000058  00000+0  90539-3 0  9998
2 31571  51.9902  76.4399 0009752 246.6359 258.4690 12.61983607809757
GLOBALSTAR M069         
1 31573U 07020C   24346.68735632 -.00000063  00000+0  24217-3 0  9995
2 31573  51.9969  36.1748 0000900 128.3650  20.3723 12.53306650810808
GLOBALSTAR M072         
1 31574U 07020D   24346.88533444 -.00000089  00000+0  55017-4 0  9996
2 31574  52.0065 133.5864 0001230 102.1050  58.4849 12.34773484809070
GLOBALSTAR M071         
1 31576U 07020F   24345.67788993 -.00000053  00000+0  29786-3 0  9999
2 31576  52.0086  41.1589 0000499  73.5050  69.4835 12.56567665471922
